[{"OBJECT_NAME":"STARLINK-4629","OBJECT_ID":"2022-125E","EPOCH":"2026-03-09T16:36:40.825152","MEAN_MOTION":15.08838312,"ECCENTRICITY":0.00014027,"INCLINATION":53.2155,"RA_OF_ASC_NODE":224.0272,"ARG_OF_PERICENTER":103.9356,"MEAN_ANOMALY":256.1792,"EPHEMERIS_TYPE":0,"CLASSIFICATION_TYPE":"U","NORAD_CAT_ID":53968,"ELEMENT_SET_NO":999,"REV_AT_EPOCH":18932,"BSTAR":0.00010577531,"MEAN_MOTION_DOT":1.396e-5,"MEAN_MOTION_DDOT":0},{"OBJECT_NAME":"OBJECT F","OBJECT_ID":"2025-292F","EPOCH":"2026-03-09T22:41:00.950496","MEAN_MOTION":15.06065121,"ECCENTRICITY":0.00151037,"INCLINATION":97.6416,"RA_OF_ASC_NODE":145.7425,"ARG_OF_PERICENTER":346.7214,"MEAN_ANOMALY":13.3613,"EPHEMERIS_TYPE":0,"CLASSIFICATION_TYPE":"U","NORAD_CAT_ID":66998,"ELEMENT_SET_NO":999,"REV_AT_EPOCH":1351,"BSTAR":0.00047210602,"MEAN_MOTION_DOT":6.85e-5,"MEAN_MOTION_DDOT":0}]
